{"type": "FeatureCollection", "features": [ {"type": "Feature", "properties": {"norad_id": 38487, "name": "COSMOS 2251 DEB", "group": "cosmos-2251-debris", "lat": -47.8223428704532, "lon": 12.027039015050779, "alt_km": 524.1027314162857, "timestamp": "2025-12-14T07:33:19.877546+00:00", "meta": {"OBJECT_NAME": "COSMOS 2251 DEB", "OBJECT_ID": "1993-036BTX", "EPOCH": "2025-12-13T09:37:35.535936", "MEAN_MOTION": 15.17423621, "ECCENTRICITY": 0.00214146, "INCLINATION": 73.9754, "RA_OF_ASC_NODE": 32.4358, "ARG_OF_PERICENTER": 204.5132, "MEAN_ANOMALY": 155.5048, "EPHEMERIS_TYPE": 0, "CLASSIFICATION_TYPE": "U", "NORAD_CAT_ID": 38487, "ELEMENT_SET_NO": 999, "REV_AT_EPOCH": 66810, "BSTAR": 0.0032557774, "MEAN_MOTION_DOT": 0.00066076, "MEAN_MOTION_DDOT": 0}, "tle": {"line1": "1 38487U 93036BTX 25347.40110574  .00066076  00000+0  32558-2 0  9993", "line2": "2 38487  73.9754  32.4358 0021414 204.5132 155.5048 15.17423621668102"}}, "geometry": {"type": "Point", "coordinates": [12.027039015050779, -47.8223428704532]}}, {"type": "Feature", "properties": {"norad_id": 39109, "name": "COSMOS 2251 DEB", "group": "cosmos-2251-debris", "lat": -32.534189199769465, "lon": -148.4918737988439, "alt_km": 622.8111960138594, "timestamp": "2025-12-14T07:33:19.877556+00:00", "meta": {"OBJECT_NAME": "COSMOS 2251 DEB", "OBJECT_ID": "1993-036BTY", "EPOCH": "2025-12-09T10:58:18.988608", "MEAN_MOTION": 14.70683686, "ECCENTRICITY": 0.00592583, "INCLINATION": 74.0426, "RA_OF_ASC_NODE": 231.4464, "ARG_OF_PERICENTER": 335.6145, "MEAN_ANOMALY": 202.0339, "EPHEMERIS_TYPE": 0, "CLASSIFICATION_TYPE": "U", "NORAD_CAT_ID": 39109, "ELEMENT_SET_NO": 999, "REV_AT_EPOCH": 65125, "BSTAR": 0.00089315049, "MEAN_MOTION_DOT": 5.561e-05, "MEAN_MOTION_DDOT": 0}, "tle": {"line1": "1 39109U 93036BTY 25343.45716422  .00005561  00000+0  89315-3 0  9996", "line2": "2 39109  74.0426 231.4464 0059258 335.6145 202.0339 14.70683686651254"}}, "geometry": {"type": "Point", "coordinates": [-148.4918737988439, -32.534189199769465]}}, {"type": "Feature", "properties": {"norad_id": 39110, "name": "COSMOS 2251 DEB", "group": "cosmos-2251-debris", "lat": 23.003098469026398, "lon": -128.58364025142333, "alt_km": 699.8686399579665, "timestamp": "2025-12-14T07:33:19.877566+00:00", "meta": {"OBJECT_NAME": "COSMOS 2251 DEB", "OBJECT_ID": "1993-036BTZ", "EPOCH": "2025-12-03T13:14:13.055136", "MEAN_MOTION": 14.72215365, "ECCENTRICITY": 0.00964609, "INCLINATION": 73.9598, "RA_OF_ASC_NODE": 79.4668, "ARG_OF_PERICENTER": 313.6965, "MEAN_ANOMALY": 59.6182, "EPHEMERIS_TYPE": 0, "CLASSIFICATION_TYPE": "U", "NORAD_CAT_ID": 39110, "ELEMENT_SET_NO": 999, "REV_AT_EPOCH": 62349, "BSTAR": 0.00066560445, "MEAN_MOTION_DOT": 4.484e-05, "MEAN_MOTION_DDOT": 0}, "tle": {"line1": "1 39110U 93036BTZ 25337.55153999  .00004484  00000+0  66560-3 0  9996", "line2": "2 39110  73.9598  79.4668 0096460 313.6965  59.6182 14.72215365623496"}}, "geometry": {"type": "Point", "coordinates": [-128.58364025142333, 23.003098469026398]}}, {"type": "Feature", "properties": {"norad_id": 39111, "name": "COSMOS 2251 DEB", "group": "cosmos-2251-debris", "lat": -33.880353917059594, "lon": 26.763806965300006, "alt_km": 523.3238220417397, "timestamp": "2025-12-14T07:33:19.877577+00:00", "meta": {"OBJECT_NAME": "COSMOS 2251 DEB", "OBJECT_ID": "1993-036BUA", "EPOCH": "2025-12-01T22:58:55.551360", "MEAN_MOTION": 15.11912111, "ECCENTRICITY": 0.00109111, "INCLINATION": 74.0059, "RA_OF_ASC_NODE": 63.5328, "ARG_OF_PERICENTER": 39.1207, "MEAN_ANOMALY": 321.0773, "EPHEMERIS_TYPE": 0, "CLASSIFICATION_TYPE": "U", "NORAD_CAT_ID": 39111, "ELEMENT_SET_NO": 999, "REV_AT_EPOCH": 8982, "BSTAR": 0.0056424119, "MEAN_MOTION_DOT": 0.00098096, "MEAN_MOTION_DDOT": 0}, "tle": {"line1": "1 39111U 93036BUA 25335.95758740  .00098096  00000+0  56424-2 0  9993", "line2": "2 39111  74.0059  63.5328 0010911  39.1207 321.0773 15.11912111 89826"}}, "geometry": {"type": "Point", "coordinates": [26.763806965300006, -33.880353917059594]}}, {"type": "Feature", "properties": {"norad_id": 39546, "name": "COSMOS 2251 DEB", "group": "cosmos-2251-debris", "lat": -44.057957341234236, "lon": 117.50067369821329, "alt_km": 568.8941091934157, "timestamp": "2025-12-14T07:33:19.877587+00:00", "meta": {"OBJECT_NAME": "COSMOS 2251 DEB", "OBJECT_ID": "1993-036BUC", "EPOCH": "2025-12-12T02:39:31.562208", "MEAN_MOTION": 14.92027517, "ECCENTRICITY": 0.00441282, "INCLINATION": 73.9967, "RA_OF_ASC_NODE": 138.0578, "ARG_OF_PERICENTER": 298.1056, "MEAN_ANOMALY": 61.5669, "EPHEMERIS_TYPE": 0, "CLASSIFICATION_TYPE": "U", "NORAD_CAT_ID": 39546, "ELEMENT_SET_NO": 999, "REV_AT_EPOCH": 64427, "BSTAR": 0.0021038636, "MEAN_MOTION_DOT": 0.00021778, "MEAN_MOTION_DDOT": 0}, "tle": {"line1": "1 39546U 93036BUC 25346.11078197  .00021778  00000+0  21039-2 0  9993", "line2": "2 39546  73.9967 138.0578 0044128 298.1056  61.5669 14.92027517644276"}}, "geometry": {"type": "Point", "coordinates": [117.50067369821329, -44.057957341234236]}}, {"type": "Feature", "properties": {"norad_id": 39547, "name": "COSMOS 2251 DEB", "group": "cosmos-2251-debris", "lat": 7.420507389252052, "lon": 17.299753075678513, "alt_km": 553.9787259664336, "timestamp": "2025-12-14T07:33:19.877597+00:00", "meta": {"OBJECT_NAME": "COSMOS 2251 DEB", "OBJECT_ID": "1993-036BUD", "EPOCH": "2025-12-11T09:19:23.142720", "MEAN_MOTION": 15.03149488, "ECCENTRICITY": 0.00052092, "INCLINATION": 74.0018, "RA_OF_ASC_NODE": 21.1464, "ARG_OF_PERICENTER": 16.2917, "MEAN_ANOMALY": 0.6798, "EPHEMERIS_TYPE": 0, "CLASSIFICATION_TYPE": "U", "NORAD_CAT_ID": 39547, "ELEMENT_SET_NO": 999, "REV_AT_EPOCH": 64005, "BSTAR": 0.0051209995, "MEAN_MOTION_DOT": 0.00069871, "MEAN_MOTION_DDOT": 0}, "tle": {"line1": "1 39547U 93036BUD 25345.38846230  .00069871  00000+0  51210-2 0  9993", "line2": "2 39547  74.0018  21.1464 0005209  16.2917   0.6798 15.03149488640058"}}, "geometry": {"type": "Point", "coordinates": [17.299753075678513, 7.420507389252052]}}, {"type": "Feature", "properties": {"norad_id": 39553, "name": "COSMOS 2251 DEB", "group": "cosmos-2251-debris", "lat": -49.13173741552913, "lon": -52.0325676978043, "alt_km": 1032.591382131077, "timestamp": "2025-12-14T07:33:19.877607+00:00", "meta": {"OBJECT_NAME": "COSMOS 2251 DEB", "OBJECT_ID": "1993-036BUK", "EPOCH": "2025-12-07T06:00:50.455872", "MEAN_MOTION": 13.99876591, "ECCENTRICITY": 0.02014092, "INCLINATION": 74.0304, "RA_OF_ASC_NODE": 339.5232, "ARG_OF_PERICENTER": 116.8065, "MEAN_ANOMALY": 245.3825, "EPHEMERIS_TYPE": 0, "CLASSIFICATION_TYPE": "U", "NORAD_CAT_ID": 39553, "ELEMENT_SET_NO": 999, "REV_AT_EPOCH": 75540, "BSTAR": 0.00088887208, "MEAN_MOTION_DOT": 1.532e-05, "MEAN_MOTION_DDOT": 0}, "tle": {"line1": "1 39553U 93036BUK 25341.25058398  .00001532  00000+0  88887-3 0  9993", "line2": "2 39553  74.0304 339.5232 0201409 116.8065 245.3825 13.99876591755403"}}, "geometry": {"type": "Point", "coordinates": [-52.0325676978043, -49.13173741552913]}}, {"type": "Feature", "properties": {"norad_id": 39554, "name": "COSMOS 2251 DEB", "group": "cosmos-2251-debris", "lat": -59.92448052853364, "lon": 111.01672319720029, "alt_km": 542.8039033865016, "timestamp": "2025-12-14T07:33:19.877618+00:00", "meta": {"OBJECT_NAME": "COSMOS 2251 DEB", "OBJECT_ID": "1993-036BUL", "EPOCH": "2025-12-10T06:12:03.924864", "MEAN_MOTION": 15.10130993, "ECCENTRICITY": 0.0002993, "INCLINATION": 74.0187, "RA_OF_ASC_NODE": 269.7383, "ARG_OF_PERICENTER": 74.7531, "MEAN_ANOMALY": 81.5927, "EPHEMERIS_TYPE": 0, "CLASSIFICATION_TYPE": "U", "NORAD_CAT_ID": 39554, "ELEMENT_SET_NO": 999, "REV_AT_EPOCH": 64347, "BSTAR": 0.0046896, "MEAN_MOTION_DOT": 0.000773, "MEAN_MOTION_DDOT": 0}, "tle": {"line1": "1 39554U 93036BUL 25344.25837876  .00077300  00000+0  46896-2 0  9992", "line2": "2 39554  74.0187 269.7383 0002993  74.7531  81.5927 15.10130993643471"}}, "geometry": {"type": "Point", "coordinates": [111.01672319720029, -59.92448052853364]}}, {"type": "Feature", "properties": {"norad_id": 39583, "name": "COSMOS 2251 DEB", "group": "cosmos-2251-debris", "lat": 0.6660293757015102, "lon": -115.60856324179045, "alt_km": 597.5975417416357, "timestamp": "2025-12-14T07:33:19.877628+00:00", "meta": {"OBJECT_NAME": "COSMOS 2251 DEB", "OBJECT_ID": "1993-036BUN", "EPOCH": "2025-12-13T00:19:01.768224", "MEAN_MOTION": 14.60448546, "ECCENTRICITY": 0.01368586, "INCLINATION": 73.9329, "RA_OF_ASC_NODE": 246.7005, "ARG_OF_PERICENTER": 0.0427, "MEAN_ANOMALY": 0.0725, "EPHEMERIS_TYPE": 0, "CLASSIFICATION_TYPE": "U", "NORAD_CAT_ID": 39583, "ELEMENT_SET_NO": 999, "REV_AT_EPOCH": 61783, "BSTAR": 0.0026464366, "MEAN_MOTION_DOT": 0.00014636, "MEAN_MOTION_DDOT": 0}, "tle": {"line1": "1 39583U 93036BUN 25347.01321491  .00014636  00000+0  26464-2 0  9994", "line2": "2 39583  73.9329 246.7005 0136858   0.0427   0.0725 14.60448546617832"}}, "geometry": {"type": "Point", "coordinates": [-115.60856324179045, 0.6660293757015102]}}, {"type": "Feature", "properties": {"norad_id": 39585, "name": "COSMOS 2251 DEB", "group": "cosmos-2251-debris", "lat": 3.2954724716649606, "lon": 117.37649309960703, "alt_km": 720.7725119152619, "timestamp": "2025-12-14T07:33:19.877638+00:00", "meta": {"OBJECT_NAME": "COSMOS 2251 DEB", "OBJECT_ID": "1993-036BUQ", "EPOCH": "2025-12-09T14:49:35.322816", "MEAN_MOTION": 14.58655096, "ECCENTRICITY": 0.0065405, "INCLINATION": 74.0411, "RA_OF_ASC_NODE": 307.2584, "ARG_OF_PERICENTER": 69.0888, "MEAN_ANOMALY": 291.7262, "EPHEMERIS_TYPE": 0, "CLASSIFICATION_TYPE": "U", "NORAD_CAT_ID": 39585, "ELEMENT_SET_NO": 999, "REV_AT_EPOCH": 62475, "BSTAR": 0.00049693, "MEAN_MOTION_DOT": 2.356e-05, "MEAN_MOTION_DDOT": 0}, "tle": {"line1": "1 39585U 93036BUQ 25343.61776994  .00002356  00000+0  49693-3 0  9996", "line2": "2 39585  74.0411 307.2584 0065405  69.0888 291.7262 14.58655096624759"}}, "geometry": {"type": "Point", "coordinates": [117.37649309960703, 3.2954724716649606]}}]}